[{"OBJECT_ID":"2016-014A","OBJECT_NAME":"EUTE 65W","NORAD_CAT_ID":"41382","OBJECT_TYPE":"PAYLOAD","PERIOD":"1436.057","INCLINATION":"0.0473","APOGEE":"35792.953","PERIGEE":"35778.684","ECCENTRICITY":"0.0001692","MEAN_MOTION":"1.0027456","TLE_LINE1":"1 41382U 16014A   16238.25353987 -.00000302  00000-0  00000+0 0  9997","TLE_LINE2":"2 41382   0.0473 329.3030 0001692 230.6988 159.9862  1.00274560  1723","LAUNCH_DATE":"2016-03-09","LAUNCH_SITE":"FRENCH GUIANA","OWNER":"EUROPEAN TELECOMMUNICATIONS SATELLITE ORGANIZATION (EUTELSAT)","ORBIT_TYPE":"Geosynchronous","OPERATIONAL_STATUS":"Operational","satInfo":{"lng":-77.45505966226715,"lat":0.428446791139722,"elevation":-8.15207777626461,"azimuth":32.45505966226715,"range":42609.222311821366,"height":35801.70487200411,"velocity":3.074064621126508},"x":-253,"y":-57,"dx":0.6677031643776615,"dy":-3.000674220761347,"maxAlt":256,"minAlt":256},{"OBJECT_ID":"2016-014B","OBJECT_NAME":"ARIANE 5 R/B","NORAD_CAT_ID":"41383","OBJECT_TYPE":"ROCKET BODY","PERIOD":"618.509","INCLINATION":"0.8595","APOGEE":"35138.953","PERIGEE":"198.406","ECCENTRICITY":"0.7265109","MEAN_MOTION":"2.32817923","TLE_LINE1":"1 41383U 16014B   16238.60969353  .00014742  97915-7  12012-2 0  9996","TLE_LINE2":"2 41383   0.8595  42.8498 7265109 281.5241   4.1007  2.32817923  3907","LAUNCH_DATE":"2016-03-09","LAUNCH_SITE":"FRENCH GUIANA","OWNER":"FRANCE","ORBIT_TYPE":"Highly Elliptical Orbit","OPERATIONAL_STATUS":"N/A, derelict rocket body","satInfo":{"lng":64.87215203889421,"lat":0.4191957245137449,"elevation":-10.335132269258578,"azimuth":250.12784796110574,"range":34069.26181239658,"height":27139.254331596454,"velocity":2.326811710184177},"x":176,"y":-84,"dx":0.9880561938390613,"dy":2.106608101300876,"maxAlt":252,"minAlt":0},{"OBJECT_ID":"2016-028A","OBJECT_NAME":"JCSAT-14","NORAD_CAT_ID":"41471","OBJECT_TYPE":"PAYLOAD","PERIOD":"1436.104","INCLINATION":"0.045","APOGEE":"35794.575","PERIGEE":"35778.932","ECCENTRICITY":"0.0001855","MEAN_MOTION":"1.00271224","TLE_LINE1":"1 41471U 16028A   16237.64632972 -.00000190  00000-0  00000+0 0  9992","TLE_LINE2":"2 41471   0.0450 284.1718 0001855 224.9684 210.8664  1.00271224  1167","LAUNCH_DATE":"2016-05-06","LAUNCH_SITE":"AIR FORCE EASTERN TEST RANGE","OWNER":"JAPAN","ORBIT_TYPE":"Geosynchronous","OPERATIONAL_STATUS":"Operational","satInfo":{"lng":-136.0601411176418,"lat":1.2203892071597573,"elevation":-7.373481407318089,"azimuth":91.06014111764176,"range":42539.03427692781,"height":35818.68978268803,"velocity":3.073416173644102},"x":-180,"y":184,"dx":-2.2130703565634895,"dy":-2.132652473638662,"maxAlt":256,"minAlt":256},{"OBJECT_ID":"2015-075D","OBJECT_NAME":"BREEZE-M DEB","NORAD_CAT_ID":"41543","OBJECT_TYPE":"DEBRIS","PERIOD":"1367.406","INCLINATION":"0.5619","APOGEE":"35470.677","PERIGEE":"33391.560","ECCENTRICITY":"0.0254736","MEAN_MOTION":"1.05308829","TLE_LINE1":"1 41543U 15075D   16234.46320362 -.00000156  00000-0  00000+0 0  9999","TLE_LINE2":"2 41543   0.5619 104.3093 0254736  55.9013 200.8037  1.05308829  2301","LAUNCH_DATE":"2015-12-13","LAUNCH_SITE":"TYURATAM MISSILE AND SPACE COMPLEX","OWNER":"COMMONWEALTH OF INDEPENDENT STATES","ORBIT_TYPE":"Unclassified","OPERATIONAL_STATUS":"N/A, space debris","satInfo":{"lng":-74.82437214522348,"lat":1.3840525793724545,"elevation":-7.590933893339109,"azimuth":29.824372145223478,"range":40744.65359162485,"height":34021.223001070306,"velocity":3.156876814475624},"x":-238,"y":-66,"dx":0.8264029880638583,"dy":-3.0467900031168687,"maxAlt":254,"minAlt":239},{"OBJECT_ID":"2015-075E","OBJECT_NAME":"BREEZE-M DEB","NORAD_CAT_ID":"41544","OBJECT_TYPE":"DEBRIS","PERIOD":"1362.593","INCLINATION":"0.5382","APOGEE":"35550.786","PERIGEE":"33119.811","ECCENTRICITY":"0.0298547","MEAN_MOTION":"1.05680816","TLE_LINE1":"1 41544U 15075E   16237.47823666 -.00000155  00000-0  00000+0 0  9998","TLE_LINE2":"2 41544   0.5382 118.1042 0298547  42.9023 200.1357  1.05680816  2342","LAUNCH_DATE":"2015-12-13","LAUNCH_SITE":"TYURATAM MISSILE AND SPACE COMPLEX","OWNER":"COMMONWEALTH OF INDEPENDENT STATES","ORBIT_TYPE":"Unclassified","OPERATIONAL_STATUS":"N/A, space debris","satInfo":{"lng":-32.79993296325985,"lat":2.172352014735538,"elevation":-6.988684385820671,"azimuth":347.79993296325983,"range":39910.663234594635,"height":33264.45754888312,"velocity":3.212418814550402},"x":-131,"y":-203,"dx":2.700254007997578,"dy":-1.7401904873807421,"maxAlt":255,"minAlt":237},{"OBJECT_ID":"2015-075F","OBJECT_NAME":"BREEZE-M DEB","NORAD_CAT_ID":"41545","OBJECT_TYPE":"DEBRIS","PERIOD":"1363.184","INCLINATION":"0.5382","APOGEE":"35409.955","PERIGEE":"33284.189","ECCENTRICITY":"0.0260989","MEAN_MOTION":"1.05634993","TLE_LINE1":"1 41545U 15075F   16235.67824173 -.00000091 +00000-0 +00000-0 0  9993","TLE_LINE2":"2 41545 000.5382 121.5247 0260989 043.4208 195.8531 01.05634993002336","LAUNCH_DATE":"2015-12-13","LAUNCH_SITE":"TYURATAM MISSILE AND SPACE COMPLEX","OWNER":"COMMONWEALTH OF INDEPENDENT STATES","ORBIT_TYPE":"Unclassified","OPERATIONAL_STATUS":"N/A, space debris","satInfo":{"lng":109.3922645579288,"lat":-0.7397982666882064,"elevation":-9.51649918802003,"azimuth":205.6077354420712,"range":41656.02300657522,"height":34708.038466705315,"velocity":3.1009308954839034},"x":234,"y":82,"dx":-1.02961382340455,"dy":2.925007315071343,"maxAlt":254,"minAlt":238},{"OBJECT_ID":"2015-075G","OBJECT_NAME":"BREEZE-M DEB","NORAD_CAT_ID":"41546","OBJECT_TYPE":"DEBRIS","PERIOD":"1376.156","INCLINATION":"0.5543","APOGEE":"35616.607","PERIGEE":"33593.449","ECCENTRICITY":"0.0246828","MEAN_MOTION":"1.04639232","TLE_LINE1":"1 41546U 15075G   16237.77216399 -.00000198  00000-0  00000+0 0  9999","TLE_LINE2":"2 41546   0.5543 131.4778 0246828  18.7716 211.1783  1.04639232  2320","LAUNCH_DATE":"2015-12-13","LAUNCH_SITE":"TYURATAM MISSILE AND SPACE COMPLEX","OWNER":"COMMONWEALTH OF INDEPENDENT STATES","ORBIT_TYPE":"Unclassified","OPERATIONAL_STATUS":"N/A, space debris","satInfo":{"lng":-144.77682562977105,"lat":-2.133673334226,"elevation":-10.775560599432069,"azimuth":99.77682562977101,"range":42268.09704472828,"height":35173.42916923335,"velocity":3.0757341846289843},"x":-148,"y":206,"dx":-2.51260318757247,"dy":-1.7739689953029014,"maxAlt":255,"minAlt":241},{"OBJECT_ID":"2015-075H","OBJECT_NAME":"BREEZE-M DEB","NORAD_CAT_ID":"41547","OBJECT_TYPE":"DEBRIS","PERIOD":"1395.453","INCLINATION":"0.5451","APOGEE":"36127.076","PERIGEE":"33847.445","ECCENTRICITY":"0.0275548","MEAN_MOTION":"1.03192227","TLE_LINE1":"1 41547U 15075H   16223.44025574 -.00000249  00000-0  00000+0 0  9999","TLE_LINE2":"2 41547   0.5451 135.7869 0275548 352.5710 234.1506  1.03192227  2157","LAUNCH_DATE":"2015-12-13","LAUNCH_SITE":"TYURATAM MISSILE AND SPACE COMPLEX","OWNER":"COMMONWEALTH OF INDEPENDENT STATES","ORBIT_TYPE":"Unclassified","OPERATIONAL_STATUS":"N/A, space debris","satInfo":{"lng":-103.2456074218169,"lat":-1.1344235317512779,"elevation":-9.956861286261097,"azimuth":58.245607421816864,"range":41435.18278623224,"height":34440.95026902826,"velocity":3.1455152847674697},"x":-243,"y":55,"dx":-0.72071859963704,"dy":-3.061834598217709,"maxAlt":259,"minAlt":242},{"OBJECT_ID":"2015-075J","OBJECT_NAME":"BREEZE-M DEB","NORAD_CAT_ID":"41548","OBJECT_TYPE":"DEBRIS","PERIOD":"1409.062","INCLINATION":"1.01","APOGEE":"36894.013","PERIGEE":"33617.485","ECCENTRICITY":"0.0393493","MEAN_MOTION":"1.02195639","TLE_LINE1":"1 41548U 15075J   16228.57390672 -.00000272 +00000-0 +00000-0 0  9990","TLE_LINE2":"2 41548 001.0100 063.8404 0393493 056.6175 307.7740 01.02195639002558","LAUNCH_DATE":"2015-12-13","LAUNCH_SITE":"TYURATAM MISSILE AND SPACE COMPLEX","OWNER":"COMMONWEALTH OF INDEPENDENT STATES","ORBIT_TYPE":"Unclassified","OPERATIONAL_STATUS":"N/A, space debris","satInfo":{"lng":13.67583332192338,"lat":1.1163489078754343,"elevation":-7.7448126647153,"azimuth":301.32416667807655,"range":41266.68669566483,"height":34519.87380022961,"velocity":3.149430395670972},"x":57,"y":-243,"dx":3.0601406711811476,"dy":0.7446145914224437,"maxAlt":264,"minAlt":241},{"OBJECT_ID":"2016-037A","OBJECT_NAME":"BEIDOU G7","NORAD_CAT_ID":"41586","OBJECT_TYPE":"PAYLOAD","PERIOD":"1436.064","INCLINATION":"1.732","APOGEE":"35801.834","PERIGEE":"35770.084","ECCENTRICITY":"0.0003765","MEAN_MOTION":"1.00274058","TLE_LINE1":"1 41586U 16037A   16238.52689913 -.00000274 +00000-0 +00000-0 0  9998","TLE_LINE2":"2 41586 001.7320 308.3119 0003765 268.7600 091.2952 01.00274058000874","LAUNCH_DATE":"2016-06-12","LAUNCH_SITE":"Xichang Space Center, China","OWNER":"PEOPLES REPUBLIC OF CHINA","ORBIT_TYPE":"Geosynchronous","OPERATIONAL_STATUS":"Operational","satInfo":{"lng":-38.88783295966599,"lat":-0.10693548253449014,"elevation":-8.675589109467317,"azimuth":353.88783295966596,"range":42666.25200582747,"height":35800.011454665226,"velocity":3.0742502786592194},"x":-163,"y":-202,"dx":2.3929241167482878,"dy":-1.930007499291315,"maxAlt":256,"minAlt":256},{"OBJECT_ID":"2016-039A","OBJECT_NAME":"BRISAT","NORAD_CAT_ID":"41591","OBJECT_TYPE":"PAYLOAD","PERIOD":"1436.177","INCLINATION":"0.0239","APOGEE":"35797.769","PERIGEE":"35778.584","ECCENTRICITY":"0.0002275","MEAN_MOTION":"1.00266149","TLE_LINE1":"1 41591U 16039A   16238.00206620  .00000000  00000-0  10000-3 0  9999","TLE_LINE2":"2 41591   0.0239 125.6118 0002275  33.1980 326.0873  1.00266149   750","LAUNCH_DATE":"2016-06-18","LAUNCH_SITE":"FRENCH GUIANA","OWNER":"INDONESIA","ORBIT_TYPE":"Geosynchronous","OPERATIONAL_STATUS":"Operational","satInfo":{"lng":-143.90217993459265,"lat":-1.767929341769209,"elevation":-10.290411648447286,"azimuth":98.90217993459264,"range":42866.987881322035,"height":35819.39940833613,"velocity":3.073259671076651},"x":-153,"y":207,"dx":-2.4832316168245647,"dy":-1.8106589251068301,"maxAlt":256,"minAlt":256}]